<?xml version="1.0" encoding="UTF-8"?>
<gpx creator="Garmin Connect" version="1.1"
  xsi:schemaLocation="http://www.topografix.com/GPX/1/1 http://www.topografix.com/GPX/11.xsd"
  xmlns:ns3="http://www.garmin.com/xmlschemas/TrackPointExtension/v1"
  xmlns="http://www.topografix.com/GPX/1/1"
  xmlns:xsi="http://www.w3.org/2001/XMLSchema-instance" xmlns:ns2="http://www.garmin.com/xmlschemas/GpxExtensions/v3">
  <metadata>
    <name>ドーム西新</name>
    <link href="connect.garmin.com">
      <text>Garmin Connect</text>
    </link>
    <time>2026-08-10T00:52:53.000Z</time>
  </metadata>
  <trk>
    <name>ドーム西新</name>
    <trkseg>
      <trkpt lat="33.59414840117097" lon="130.36030973307788">
        <ele>8.78</ele>
      </trkpt>
      <trkpt lat="33.594131553545594" lon="130.36025047302246">
        <ele>9.57</ele>
      </trkpt>
      <trkpt lat="33.594088638201356" lon="130.36010026931763">
        <ele>11.51</ele>
      </trkpt>
      <trkpt lat="33.59404572285712" lon="130.35999298095703">
        <ele>14.02</ele>
      </trkpt>
      <trkpt lat="33.594024265185" lon="130.35992860794067">
        <ele>15.85</ele>
      </trkpt>
      <trkpt lat="33.59391680918634" lon="130.35966005176306">
        <ele>18.01</ele>
      </trkpt>
      <trkpt lat="33.59380968846381" lon="130.3593921661377">
        <ele>18.62</ele>
      </trkpt>
      <trkpt lat="33.59374531544745" lon="130.35919904708862">
        <ele>18.26</ele>
      </trkpt>
      <trkpt lat="33.59368094243109" lon="130.35902738571167">
        <ele>17.08</ele>
      </trkpt>
      <trkpt lat="33.59368085861206" lon="130.35902738571167">
        <ele>16.24</ele>
      </trkpt>
      <trkpt lat="33.593638027086854" lon="130.35889863967896">
        <ele>14.84</ele>
      </trkpt>
      <trkpt lat="33.593595111742616" lon="130.35879135131836">
        <ele>13.79</ele>
      </trkpt>
      <trkpt lat="33.59350928105414" lon="130.35855531692505">
        <ele>12.87</ele>
      </trkpt>
      <trkpt lat="33.59344490803778" lon="130.35836219787598">
        <ele>12.42</ele>
      </trkpt>
      <trkpt lat="33.59332672320306" lon="130.35803991369903">
        <ele>12.03</ele>
      </trkpt>
      <trkpt lat="33.59320887364447" lon="130.3577184677124">
        <ele>12.0</ele>
      </trkpt>
      <trkpt lat="33.593123042955995" lon="130.35754680633545">
        <ele>12.45</ele>
      </trkpt>
      <trkpt lat="33.593026315793395" lon="130.35726752132177">
        <ele>13.47</ele>
      </trkpt>
      <trkpt lat="33.59292967244983" lon="130.3569882363081">
        <ele>14.82</ele>
      </trkpt>
      <trkpt lat="33.59283294528723" lon="130.35670895129442">
        <ele>16.07</ele>
      </trkpt>
      <trkpt lat="33.59273680485785" lon="130.35643100738525">
        <ele>17.29</ele>
      </trkpt>
      <trkpt lat="33.59265097416937" lon="130.35619497299194">
        <ele>18.5</ele>
      </trkpt>
      <trkpt lat="33.59252222813666" lon="130.35589456558228">
        <ele>19.48</ele>
      </trkpt>
      <trkpt lat="33.59247931279242" lon="130.35576581954956">
        <ele>20.28</ele>
      </trkpt>
      <trkpt lat="33.59247922897339" lon="130.35576581954956">
        <ele>21.05</ele>
      </trkpt>
      <trkpt lat="33.592378897592425" lon="130.35547932609916">
        <ele>20.95</ele>
      </trkpt>
      <trkpt lat="33.592278650030494" lon="130.3551929164678">
        <ele>21.43</ele>
      </trkpt>
      <trkpt lat="33.59217882156372" lon="130.3549075126648">
        <ele>22.61</ele>
      </trkpt>
      <trkpt lat="33.59212509356439" lon="130.35457433201373">
        <ele>24.12</ele>
      </trkpt>
      <trkpt lat="33.59207161702216" lon="130.3542423248291">
        <ele>24.3</ele>
      </trkpt>
      <trkpt lat="33.592071533203125" lon="130.3542423248291">
        <ele>24.58</ele>
      </trkpt>
      <trkpt lat="33.59205015935004" lon="130.35409212112427">
        <ele>24.26</ele>
      </trkpt>
      <trkpt lat="33.5920072440058" lon="130.35372734069824">
        <ele>24.16</ele>
      </trkpt>
      <trkpt lat="33.59198578633368" lon="130.35353422164917">
        <ele>23.98</ele>
      </trkpt>
      <trkpt lat="33.59198570251465" lon="130.35353422164917">
        <ele>23.57</ele>
      </trkpt>
      <trkpt lat="33.591946978121996" lon="130.35321604460478">
        <ele>22.49</ele>
      </trkpt>
      <trkpt lat="33.591908337548375" lon="130.3528978675604">
        <ele>21.69</ele>
      </trkpt>
      <trkpt lat="33.59186961315572" lon="130.35257977433503">
        <ele>20.97</ele>
      </trkpt>
      <trkpt lat="33.5918309725821" lon="130.35226159729064">
        <ele>20.27</ele>
      </trkpt>
      <trkpt lat="33.59179266728461" lon="130.35194635391235">
        <ele>19.23</ele>
      </trkpt>
      <trkpt lat="33.591792583465576" lon="130.35194635391235">
        <ele>18.37</ele>
      </trkpt>
      <trkpt lat="33.59175872057676" lon="130.35166589543223">
        <ele>17.11</ele>
      </trkpt>
      <trkpt lat="33.59172494150698" lon="130.35138552077115">
        <ele>15.98</ele>
      </trkpt>
      <trkpt lat="33.591691413894296" lon="130.35110665485263">
        <ele>15.21</ele>
      </trkpt>
      <trkpt lat="33.59172519296408" lon="130.35138702951372">
        <ele>14.32</ele>
      </trkpt>
      <trkpt lat="33.59175897203386" lon="130.3516674041748">
        <ele>13.83</ele>
      </trkpt>
      <trkpt lat="33.591792583465576" lon="130.35194635391235">
        <ele>18.37</ele>
      </trkpt>
      <trkpt lat="33.59179266728461" lon="130.35194635391235">
        <ele>19.23</ele>
      </trkpt>
      <trkpt lat="33.591792583465576" lon="130.35194635391235">
        <ele>18.37</ele>
      </trkpt>
      <trkpt lat="33.59175872057676" lon="130.35166589543223">
        <ele>17.11</ele>
      </trkpt>
      <trkpt lat="33.59172494150698" lon="130.35138552077115">
        <ele>15.98</ele>
      </trkpt>
      <trkpt lat="33.591691413894296" lon="130.35110665485263">
        <ele>15.21</ele>
      </trkpt>
      <trkpt lat="33.59165352769196" lon="130.3507923334837">
        <ele>9.98</ele>
      </trkpt>
      <trkpt lat="33.591615641489625" lon="130.35047801211476">
        <ele>9.44</ele>
      </trkpt>
      <trkpt lat="33.591578006744385" lon="130.35016536712646">
        <ele>9.01</ele>
      </trkpt>
      <trkpt lat="33.591599464416504" lon="130.35003662109375">
        <ele>8.66</ele>
      </trkpt>
      <trkpt lat="33.591556465253234" lon="130.34972850233316">
        <ele>8.33</ele>
      </trkpt>
      <trkpt lat="33.591513466089964" lon="130.34942038357258">
        <ele>7.96</ele>
      </trkpt>
      <trkpt lat="33.59147071838379" lon="130.34911394119263">
        <ele>7.76</ele>
      </trkpt>
      <trkpt lat="33.59138472005725" lon="130.34885611385107">
        <ele>7.46</ele>
      </trkpt>
      <trkpt lat="33.591299057006836" lon="130.34859895706177">
        <ele>7.26</ele>
      </trkpt>
      <trkpt lat="33.59115966595709" lon="130.34845956601202">
        <ele>7.07</ele>
      </trkpt>
      <trkpt lat="33.59102010726929" lon="130.34832000732422">
        <ele>6.88</ele>
      </trkpt>
      <trkpt lat="33.590731183066964" lon="130.34826644696295">
        <ele>6.69</ele>
      </trkpt>
      <trkpt lat="33.5904408339411" lon="130.34821271896362">
        <ele>6.56</ele>
      </trkpt>
      <trkpt lat="33.59044075012207" lon="130.34821271896362">
        <ele>6.54</ele>
      </trkpt>
      <trkpt lat="33.59020479954779" lon="130.3481912612915">
        <ele>6.5</ele>
      </trkpt>
      <trkpt lat="33.59000145457685" lon="130.34818053245544">
        <ele>6.51</ele>
      </trkpt>
      <trkpt lat="33.58979710377753" lon="130.34816980361938">
        <ele>6.5</ele>
      </trkpt>
      <trkpt lat="33.589508179575205" lon="130.34813770093024">
        <ele>6.7</ele>
      </trkpt>
      <trkpt lat="33.58921774663031" lon="130.34810543060303">
        <ele>7.13</ele>
      </trkpt>
      <trkpt lat="33.58921766281128" lon="130.34810543060303">
        <ele>7.32</ele>
      </trkpt>
      <trkpt lat="33.58895229175687" lon="130.3480839729309">
        <ele>7.71</ele>
      </trkpt>
      <trkpt lat="33.58868700452149" lon="130.34806259907782">
        <ele>8.09</ele>
      </trkpt>
      <trkpt lat="33.58842163346708" lon="130.34804122522473">
        <ele>8.33</ele>
      </trkpt>
      <trkpt lat="33.5881563462317" lon="130.34801976755261">
        <ele>8.39</ele>
      </trkpt>
      <trkpt lat="33.587887370958924" lon="130.34799814224243">
        <ele>8.31</ele>
      </trkpt>
      <trkpt lat="33.58778008259833" lon="130.34799814224243">
        <ele>8.3</ele>
      </trkpt>
      <trkpt lat="33.5877799987793" lon="130.34799814224243">
        <ele>8.33</ele>
      </trkpt>
      <trkpt lat="33.58769425190985" lon="130.34799814224243">
        <ele>8.31</ele>
      </trkpt>
      <trkpt lat="33.58753373846412" lon="130.3479980584234">
        <ele>8.25</ele>
      </trkpt>
      <trkpt lat="33.587372386828065" lon="130.34799814224243">
        <ele>8.22</ele>
      </trkpt>
      <trkpt lat="33.58737230300903" lon="130.34799814224243">
        <ele>8.16</ele>
      </trkpt>
      <trkpt lat="33.587147668004036" lon="130.3479980584234">
        <ele>8.12</ele>
      </trkpt>
      <trkpt lat="33.58692177571356" lon="130.34799814224243">
        <ele>8.02</ele>
      </trkpt>
      <trkpt lat="33.58673142269254" lon="130.34799814224243">
        <ele>7.92</ele>
      </trkpt>
      <trkpt lat="33.58692177571356" lon="130.34799814224243">
        <ele>8.02</ele>
      </trkpt>
      <trkpt lat="33.58673142269254" lon="130.34799814224243">
        <ele>7.92</ele>
      </trkpt>
      <trkpt lat="33.58656948432326" lon="130.3479980584234">
        <ele>7.58</ele>
      </trkpt>
      <trkpt lat="33.58640670776367" lon="130.34799814224243">
        <ele>7.43</ele>
      </trkpt>
      <trkpt lat="33.58614921569824" lon="130.34804105758667">
        <ele>7.33</ele>
      </trkpt>
      <trkpt lat="33.586149299517274" lon="130.34804105758667">
        <ele>7.31</ele>
      </trkpt>
      <trkpt lat="33.58595668338239" lon="130.34807307645679">
        <ele>7.32</ele>
      </trkpt>
      <trkpt lat="33.58576306141913" lon="130.34810543060303">
        <ele>7.42</ele>
      </trkpt>
      <trkpt lat="33.585548400878906" lon="130.34814834594727">
        <ele>7.63</ele>
      </trkpt>
      <trkpt lat="33.58554848469794" lon="130.34814834594727">
        <ele>7.76</ele>
      </trkpt>
      <trkpt lat="33.585259560495615" lon="130.3482018224895">
        <ele>7.99</ele>
      </trkpt>
      <trkpt lat="33.58496912755072" lon="130.34825563430786">
        <ele>8.09</ele>
      </trkpt>
      <trkpt lat="33.584712306037545" lon="130.3483091108501">
        <ele>8.37</ele>
      </trkpt>
      <trkpt lat="33.58445414341986" lon="130.34836292266846">
        <ele>8.74</ele>
      </trkpt>
      <trkpt lat="33.58414736576378" lon="130.34841279499233">
        <ele>9.09</ele>
      </trkpt>
      <trkpt lat="33.58384067192674" lon="130.34846275113523">
        <ele>9.43</ele>
      </trkpt>
      <trkpt lat="33.58353146351874" lon="130.3485131263733">
        <ele>9.89</ele>
      </trkpt>
      <trkpt lat="33.58327455818653" lon="130.34855587407947">
        <ele>10.32</ele>
      </trkpt>
      <trkpt lat="33.58301639556885" lon="130.34859895706177">
        <ele>10.75</ele>
      </trkpt>
      <trkpt lat="33.58301647938788" lon="130.34859895706177">
        <ele>11.24</ele>
      </trkpt>
      <trkpt lat="33.58270509168506" lon="130.3486487455666">
        <ele>11.75</ele>
      </trkpt>
      <trkpt lat="33.582393703982234" lon="130.34869853407145">
        <ele>12.43</ele>
      </trkpt>
      <trkpt lat="33.58208240009844" lon="130.34874840639532">
        <ele>13.15</ele>
      </trkpt>
      <trkpt lat="33.58176765963435" lon="130.34879878163338">
        <ele>13.82</ele>
      </trkpt>
      <trkpt lat="33.58158786781132" lon="130.34882753156126">
        <ele>14.37</ele>
      </trkpt>
      <trkpt lat="33.581407153978944" lon="130.3488564491272">
        <ele>14.87</ele>
      </trkpt>
      <trkpt lat="33.58132132329047" lon="130.34887790679932">
        <ele>15.32</ele>
      </trkpt>
      <trkpt lat="33.58132132329047" lon="130.34894227981567">
        <ele>15.77</ele>
      </trkpt>
      <trkpt lat="33.581342780962586" lon="130.34911394119263">
        <ele>16.24</ele>
      </trkpt>
      <trkpt lat="33.58132844790816" lon="130.34944351762533">
        <ele>16.6</ele>
      </trkpt>
      <trkpt lat="33.58131411485374" lon="130.34977317787707">
        <ele>16.78</ele>
      </trkpt>
      <trkpt lat="33.58129986561835" lon="130.3501009941101">
        <ele>16.97</ele>
      </trkpt>
      <trkpt lat="33.581285532563925" lon="130.35039477981627">
        <ele>17.21</ele>
      </trkpt>
      <trkpt lat="33.5812711995095" lon="130.35068856552243">
        <ele>17.38</ele>
      </trkpt>
      <trkpt lat="33.58125695027411" lon="130.350980758667">
        <ele>17.39</ele>
      </trkpt>
      <trkpt lat="33.58126767911017" lon="130.35122794099152">
        <ele>17.46</ele>
      </trkpt>
      <trkpt lat="33.58127840794623" lon="130.35147428512573">
        <ele>17.55</ele>
      </trkpt>
      <trkpt lat="33.58129265718162" lon="130.35173940472305">
        <ele>17.52</ele>
      </trkpt>
      <trkpt lat="33.581306990236044" lon="130.35200452432036">
        <ele>17.34</ele>
      </trkpt>
      <trkpt lat="33.58132132329047" lon="130.35226821899414">
        <ele>17.11</ele>
      </trkpt>
      <trkpt lat="33.581342697143555" lon="130.35235404968262">
        <ele>16.97</ele>
      </trkpt>
      <trkpt lat="33.581342780962586" lon="130.35235404968262">
        <ele>16.81</ele>
      </trkpt>
      <trkpt lat="33.581353928893805" lon="130.35242890007794">
        <ele>16.63</ele>
      </trkpt>
      <trkpt lat="33.581342780962586" lon="130.35235404968262">
        <ele>16.81</ele>
      </trkpt>
      <trkpt lat="33.581353928893805" lon="130.35242890007794">
        <ele>16.63</ele>
      </trkpt>
      <trkpt lat="33.58139315620065" lon="130.35269049927592">
        <ele>16.14</ele>
      </trkpt>
      <trkpt lat="33.58143238350749" lon="130.3529520984739">
        <ele>15.88</ele>
      </trkpt>
      <trkpt lat="33.5814715269953" lon="130.35321235656738">
        <ele>15.6</ele>
      </trkpt>
      <trkpt lat="33.58152877539396" lon="130.3534917254001">
        <ele>15.31</ele>
      </trkpt>
      <trkpt lat="33.581586023792624" lon="130.3537710942328">
        <ele>15.09</ele>
      </trkpt>
      <trkpt lat="33.58164310455322" lon="130.35404920578003">
        <ele>14.91</ele>
      </trkpt>
      <trkpt lat="33.58169121667743" lon="130.35432958044112">
        <ele>14.58</ele>
      </trkpt>
      <trkpt lat="33.581739412620664" lon="130.3546099551022">
        <ele>14.23</ele>
      </trkpt>
      <trkpt lat="33.5817876085639" lon="130.3548903297633">
        <ele>13.89</ele>
      </trkpt>
      <trkpt lat="33.58183555305004" lon="130.35516886040568">
        <ele>13.55</ele>
      </trkpt>
      <trkpt lat="33.581879222765565" lon="130.35542249679565">
        <ele>13.26</ele>
      </trkpt>
      <trkpt lat="33.58183555305004" lon="130.35516886040568">
        <ele>13.55</ele>
      </trkpt>
      <trkpt lat="33.581879222765565" lon="130.35542249679565">
        <ele>13.26</ele>
      </trkpt>
      <trkpt lat="33.581943679600954" lon="130.3557878639549">
        <ele>12.58</ele>
      </trkpt>
      <trkpt lat="33.58200796879828" lon="130.3561520576477">
        <ele>12.47</ele>
      </trkpt>
      <trkpt lat="33.58205088414252" lon="130.35636696964502">
        <ele>12.43</ele>
      </trkpt>
      <trkpt lat="33.582093799486756" lon="130.3565812110901">
        <ele>12.38</ele>
      </trkpt>
      <trkpt lat="33.582136714830995" lon="130.35675287246704">
        <ele>12.3</ele>
      </trkpt>
      <trkpt lat="33.58220108784735" lon="130.3571182396263">
        <ele>12.17</ele>
      </trkpt>
      <trkpt lat="33.58226554468274" lon="130.35748360678554">
        <ele>12.04</ele>
      </trkpt>
      <trkpt lat="33.582329750061035" lon="130.35784721374512">
        <ele>12.08</ele>
      </trkpt>
      <trkpt lat="33.58239412307739" lon="130.3580403327942">
        <ele>12.18</ele>
      </trkpt>
      <trkpt lat="33.582394206896424" lon="130.3580403327942">
        <ele>12.32</ele>
      </trkpt>
      <trkpt lat="33.58243703842163" lon="130.35808324813843">
        <ele>12.5</ele>
      </trkpt>
      <trkpt lat="33.58255513943732" lon="130.35837317816913">
        <ele>12.8</ele>
      </trkpt>
      <trkpt lat="33.58267315663397" lon="130.35866260528564">
        <ele>13.13</ele>
      </trkpt>
      <trkpt lat="33.58273752965033" lon="130.3588342666626">
        <ele>13.48</ele>
      </trkpt>
      <trkpt lat="33.5827374458313" lon="130.3588342666626">
        <ele>13.79</ele>
      </trkpt>
      <trkpt lat="33.58273752965033" lon="130.3588342666626">
        <ele>13.48</ele>
      </trkpt>
      <trkpt lat="33.58267307281494" lon="130.35866260528564">
        <ele>14.4</ele>
      </trkpt>
      <trkpt lat="33.58290910720825" lon="130.3585124015808">
        <ele>14.88</ele>
      </trkpt>
      <trkpt lat="33.5829306486994" lon="130.3585982322693">
        <ele>15.28</ele>
      </trkpt>
      <trkpt lat="33.58297348022461" lon="130.35868406295776">
        <ele>15.68</ele>
      </trkpt>
      <trkpt lat="33.58273752965033" lon="130.3588342666626">
        <ele>13.48</ele>
      </trkpt>
      <trkpt lat="33.5827374458313" lon="130.3588342666626">
        <ele>13.79</ele>
      </trkpt>
      <trkpt lat="33.58273752965033" lon="130.3588342666626">
        <ele>13.48</ele>
      </trkpt>
      <trkpt lat="33.582855546846986" lon="130.35907038487494">
        <ele>16.9</ele>
      </trkpt>
      <trkpt lat="33.58297356404364" lon="130.35930633544922">
        <ele>17.26</ele>
      </trkpt>
      <trkpt lat="33.58305939473212" lon="130.3594780806452">
        <ele>17.6</ele>
      </trkpt>
      <trkpt lat="33.583145225420594" lon="130.35964965820312">
        <ele>17.92</ele>
      </trkpt>
      <trkpt lat="33.58316668309271" lon="130.35975694656372">
        <ele>18.17</ele>
      </trkpt>
      <trkpt lat="33.58328830450773" lon="130.3600073978305">
        <ele>18.45</ele>
      </trkpt>
      <trkpt lat="33.58341000974178" lon="130.36025793291628">
        <ele>18.53</ele>
      </trkpt>
      <trkpt lat="33.58353146351874" lon="130.3605079650879">
        <ele>18.49</ele>
      </trkpt>
      <trkpt lat="33.583617294207215" lon="130.36072254180908">
        <ele>18.33</ele>
      </trkpt>
      <trkpt lat="33.583595752716064" lon="130.3607439994812">
        <ele>18.16</ele>
      </trkpt>
      <trkpt lat="33.58365903608501" lon="130.36105421371758">
        <ele>17.7</ele>
      </trkpt>
      <trkpt lat="33.583722403272986" lon="130.361364511773">
        <ele>17.31</ele>
      </trkpt>
      <trkpt lat="33.583785435184836" lon="130.36167330108583">
        <ele>17.15</ele>
      </trkpt>
      <trkpt lat="33.58372206799686" lon="130.36136300303042">
        <ele>16.89</ele>
      </trkpt>
      <trkpt lat="33.58365870080888" lon="130.361052704975">
        <ele>16.87</ele>
      </trkpt>
      <trkpt lat="33.583595752716064" lon="130.3607439994812">
        <ele>18.16</ele>
      </trkpt>
      <trkpt lat="33.58365903608501" lon="130.36105421371758">
        <ele>17.7</ele>
      </trkpt>
      <trkpt lat="33.583722403272986" lon="130.361364511773">
        <ele>17.31</ele>
      </trkpt>
      <trkpt lat="33.583785435184836" lon="130.36167330108583">
        <ele>17.15</ele>
      </trkpt>
      <trkpt lat="33.58372206799686" lon="130.3613629192114">
        <ele>15.41</ele>
      </trkpt>
      <trkpt lat="33.58365870080888" lon="130.361052704975">
        <ele>15.35</ele>
      </trkpt>
      <trkpt lat="33.583595752716064" lon="130.3607439994812">
        <ele>18.16</ele>
      </trkpt>
      <trkpt lat="33.58365903608501" lon="130.36105421371758">
        <ele>14.83</ele>
      </trkpt>
      <trkpt lat="33.583722403272986" lon="130.36136442795396">
        <ele>14.36</ele>
      </trkpt>
      <trkpt lat="33.583810329437256" lon="130.36179542541504">
        <ele>14.2</ele>
      </trkpt>
      <trkpt lat="33.58391057699919" lon="130.36211762577295">
        <ele>14.02</ele>
      </trkpt>
      <trkpt lat="33.58401082456112" lon="130.3624399099499">
        <ele>13.69</ele>
      </trkpt>
      <trkpt lat="33.584110736846924" lon="130.3627610206604">
        <ele>13.41</ele>
      </trkpt>
      <trkpt lat="33.58418231830001" lon="130.36300451494753">
        <ele>13.16</ele>
      </trkpt>
      <trkpt lat="33.584253983572125" lon="130.36324800923467">
        <ele>12.85</ele>
      </trkpt>
      <trkpt lat="33.58432539738715" lon="130.36349058151245">
        <ele>12.53</ele>
      </trkpt>
      <trkpt lat="33.5842623654753" lon="130.36353399977088">
        <ele>12.26</ele>
      </trkpt>
      <trkpt lat="33.58432539738715" lon="130.36349058151245">
        <ele>12.53</ele>
      </trkpt>
      <trkpt lat="33.5842623654753" lon="130.36353399977088">
        <ele>12.26</ele>
      </trkpt>
      <trkpt lat="33.58432539738715" lon="130.36349058151245">
        <ele>12.53</ele>
      </trkpt>
      <trkpt lat="33.584325313568115" lon="130.36349058151245">
        <ele>11.43</ele>
      </trkpt>
      <trkpt lat="33.584346855059266" lon="130.36346912384033">
        <ele>11.25</ele>
      </trkpt>
      <trkpt lat="33.584346855059266" lon="130.36349058151245">
        <ele>11.05</ele>
      </trkpt>
      <trkpt lat="33.584346771240234" lon="130.36349058151245">
        <ele>10.87</ele>
      </trkpt>
      <trkpt lat="33.5844434145838" lon="130.3636730555445">
        <ele>10.64</ele>
      </trkpt>
      <trkpt lat="33.58453997410834" lon="130.36385536193848">
        <ele>10.41</ele>
      </trkpt>
      <trkpt lat="33.58453997410834" lon="130.3638768196106">
        <ele>10.27</ele>
      </trkpt>
      <trkpt lat="33.584625804796815" lon="130.3640700224787">
        <ele>10.09</ele>
      </trkpt>
      <trkpt lat="33.58471163548529" lon="130.36426305770874">
        <ele>10.02</ele>
      </trkpt>
      <trkpt lat="33.58471155166626" lon="130.36426305770874">
        <ele>9.94</ele>
      </trkpt>
      <trkpt lat="33.58483501709998" lon="130.36455835215747">
        <ele>9.99</ele>
      </trkpt>
      <trkpt lat="33.584958566352725" lon="130.3648536466062">
        <ele>9.99</ele>
      </trkpt>
      <trkpt lat="33.58508203178644" lon="130.36514894105494">
        <ele>9.89</ele>
      </trkpt>
      <trkpt lat="33.58520516194403" lon="130.3654432296753">
        <ele>9.77</ele>
      </trkpt>
      <trkpt lat="33.58539794571698" lon="130.36559318192303">
        <ele>9.72</ele>
      </trkpt>
      <trkpt lat="33.585591316223145" lon="130.36574363708496">
        <ele>9.72</ele>
      </trkpt>
      <trkpt lat="33.585862554609776" lon="130.36590063013136">
        <ele>9.73</ele>
      </trkpt>
      <trkpt lat="33.58613387681544" lon="130.3660577069968">
        <ele>9.69</ele>
      </trkpt>
      <trkpt lat="33.586406791582704" lon="130.36621570587158">
        <ele>9.61</ele>
      </trkpt>
      <trkpt lat="33.58640670776367" lon="130.36621570587158">
        <ele>9.64</ele>
      </trkpt>
      <trkpt lat="33.58667325228453" lon="130.36639340221882">
        <ele>9.66</ele>
      </trkpt>
      <trkpt lat="33.58694080263376" lon="130.3665717691183">
        <ele>9.79</ele>
      </trkpt>
      <trkpt lat="33.587050437927246" lon="130.36664485931396">
        <ele>9.87</ele>
      </trkpt>
      <trkpt lat="33.58717918395996" lon="130.36685943603516">
        <ele>9.93</ele>
      </trkpt>
      <trkpt lat="33.58730801381171" lon="130.36707401275635">
        <ele>10.04</ele>
      </trkpt>
      <trkpt lat="33.587350929155946" lon="130.3671383857727">
        <ele>10.13</ele>
      </trkpt>
      <trkpt lat="33.587350845336914" lon="130.3671383857727">
        <ele>10.18</ele>
      </trkpt>
      <trkpt lat="33.58753298409283" lon="130.36698834970593">
        <ele>10.24</ele>
      </trkpt>
      <trkpt lat="33.58771570958197" lon="130.36683797836304">
        <ele>10.31</ele>
      </trkpt>
      <trkpt lat="33.58791930601001" lon="130.3666557557881">
        <ele>10.27</ele>
      </trkpt>
      <trkpt lat="33.588123405352235" lon="130.366473197937">
        <ele>10.26</ele>
      </trkpt>
      <trkpt lat="33.58820923604071" lon="130.36638736724854">
        <ele>10.2</ele>
      </trkpt>
      <trkpt lat="33.58820915222168" lon="130.36638736724854">
        <ele>10.11</ele>
      </trkpt>
      <trkpt lat="33.588434206321836" lon="130.3661729581654">
        <ele>10.07</ele>
      </trkpt>
      <trkpt lat="33.58865984715521" lon="130.36595821380615">
        <ele>9.86</ele>
      </trkpt>
      <trkpt lat="33.588595474138856" lon="130.36587238311768">
        <ele>9.68</ele>
      </trkpt>
      <trkpt lat="33.5888366214931" lon="130.3656472451985">
        <ele>9.4</ele>
      </trkpt>
      <trkpt lat="33.589077768847346" lon="130.36542219109833">
        <ele>9.04</ele>
      </trkpt>
      <trkpt lat="33.58931891620159" lon="130.36519713699818">
        <ele>8.59</ele>
      </trkpt>
      <trkpt lat="33.58956106938422" lon="130.36497116088867">
        <ele>8.17</ele>
      </trkpt>
      <trkpt lat="33.58976827003062" lon="130.36476387642324">
        <ele>7.89</ele>
      </trkpt>
      <trkpt lat="33.58997547067702" lon="130.36455667577684">
        <ele>7.63</ele>
      </trkpt>
      <trkpt lat="33.59018334187567" lon="130.36434888839722">
        <ele>7.31</ele>
      </trkpt>
      <trkpt lat="33.59037637710571" lon="130.36415576934814">
        <ele>7.03</ele>
      </trkpt>
      <trkpt lat="33.590376460924745" lon="130.36415576934814">
        <ele>6.83</ele>
      </trkpt>
      <trkpt lat="33.590397918596864" lon="130.36413431167603">
        <ele>6.65</ele>
      </trkpt>
      <trkpt lat="33.59041929244995" lon="130.3641128540039">
        <ele>6.51</ele>
      </trkpt>
      <trkpt lat="33.59041937626898" lon="130.3641128540039">
        <ele>6.42</ele>
      </trkpt>
      <trkpt lat="33.59060503542423" lon="130.36395569331944">
        <ele>6.33</ele>
      </trkpt>
      <trkpt lat="33.590790778398514" lon="130.36379853263497">
        <ele>6.37</ele>
      </trkpt>
      <trkpt lat="33.59097727574408" lon="130.36364078521729">
        <ele>6.38</ele>
      </trkpt>
      <trkpt lat="33.59097719192505" lon="130.36364078521729">
        <ele>6.43</ele>
      </trkpt>
      <trkpt lat="33.59102019108832" lon="130.36372661590576">
        <ele>6.53</ele>
      </trkpt>
      <trkpt lat="33.59125622548163" lon="130.36357641220093">
        <ele>6.64</ele>
      </trkpt>
      <trkpt lat="33.591320514678955" lon="130.36351203918457">
        <ele>6.76</ele>
      </trkpt>
      <trkpt lat="33.59140634536743" lon="130.36349058151245">
        <ele>6.85</ele>
      </trkpt>
      <trkpt lat="33.59140642918646" lon="130.36349058151245">
        <ele>6.93</ele>
      </trkpt>
      <trkpt lat="33.59144926071167" lon="130.36357641220093">
        <ele>6.99</ele>
      </trkpt>
      <trkpt lat="33.59170633368194" lon="130.36338966339827">
        <ele>7.09</ele>
      </trkpt>
      <trkpt lat="33.59196340665221" lon="130.36320299841464">
        <ele>7.16</ele>
      </trkpt>
      <trkpt lat="33.592220563441515" lon="130.36301624961197">
        <ele>7.0</ele>
      </trkpt>
      <trkpt lat="33.592477636411786" lon="130.36282958462834">
        <ele>6.79</ele>
      </trkpt>
      <trkpt lat="33.59273470938206" lon="130.3626429196447">
        <ele>6.52</ele>
      </trkpt>
      <trkpt lat="33.59299186617136" lon="130.36245617084205">
        <ele>6.11</ele>
      </trkpt>
      <trkpt lat="33.59325178898871" lon="130.36226749420166">
        <ele>5.66</ele>
      </trkpt>
      <trkpt lat="33.593337619677186" lon="130.36222457885742">
        <ele>5.48</ele>
      </trkpt>
      <trkpt lat="33.593337535858154" lon="130.36222457885742">
        <ele>5.39</ele>
      </trkpt>
      <trkpt lat="33.59348773956299" lon="130.36211729049683">
        <ele>5.25</ele>
      </trkpt>
      <trkpt lat="33.59344490803778" lon="130.36205291748047">
        <ele>5.3</ele>
      </trkpt>
      <trkpt lat="33.59342345036566" lon="130.361967086792">
        <ele>5.41</ele>
      </trkpt>
      <trkpt lat="33.59342336654663" lon="130.361967086792">
        <ele>5.67</ele>
      </trkpt>
      <trkpt lat="33.59353073872626" lon="130.36188125610352">
        <ele>5.95</ele>
      </trkpt>
      <trkpt lat="33.59376677311957" lon="130.36173105239868">
        <ele>6.53</ele>
      </trkpt>
      <trkpt lat="33.59395980834961" lon="130.36149501800537">
        <ele>7.08</ele>
      </trkpt>
      <trkpt lat="33.594045639038086" lon="130.3613124601543">
        <ele>6.8</ele>
      </trkpt>
      <trkpt lat="33.59413146972656" lon="130.36113023757935">
        <ele>6.08</ele>
      </trkpt>
      <trkpt lat="33.59416365623474" lon="130.36093678325415">
        <ele>5.08</ele>
      </trkpt>
      <trkpt lat="33.59419584274292" lon="130.3607439994812">
        <ele>4.38</ele>
      </trkpt>
      <trkpt lat="33.5941743850708" lon="130.3604006767273">
        <ele>4.15</ele>
      </trkpt>
      <trkpt lat="33.594131553545594" lon="130.3604221343994">
        <ele>4.0</ele>
      </trkpt>
      <trkpt lat="33.59413146972656" lon="130.3604221343994">
        <ele>4.18</ele>
      </trkpt>
      <trkpt lat="33.59414219856262" lon="130.36063704639673">
        <ele>4.56</ele>
      </trkpt>
      <trkpt lat="33.59415292739868" lon="130.3608512878418">
        <ele>5.49</ele>
      </trkpt>
      <trkpt lat="33.594115460291505" lon="130.36100132390857">
        <ele>6.29</ele>
      </trkpt>
    </trkseg>
  </trk>
</gpx>
